{"fetched_at":"2026-03-30T06:02:59Z","count":15439,"tles":[{"name":"STARLINK-32002","line1":"1 60200U 24124T   26087.68757640 -.00000390  00000+0 -10600-5 0  9992","line2":"2 60200  53.1607 234.2990 0001075  66.5065 293.6048 15.30193528 97209","category":"Starlink"}]}